[{"OBJECT_NAME":"HAWK-11A","OBJECT_ID":"2024-247F","EPOCH":"2026-03-09T12:17:43.893312","MEAN_MOTION":15.28849427,"ECCENTRICITY":0.00054663,"INCLINATION":44.9941,"RA_OF_ASC_NODE":114.3328,"ARG_OF_PERICENTER":327.3713,"MEAN_ANOMALY":32.6832,"EPHEMERIS_TYPE":0,"CLASSIFICATION_TYPE":"U","NORAD_CAT_ID":62382,"ELEMENT_SET_NO":999,"REV_AT_EPOCH":6774,"BSTAR":0.00034106017,"MEAN_MOTION_DOT":9.457e-5,"MEAN_MOTION_DDOT":0},{"OBJECT_NAME":"STARLINK-33707","OBJECT_ID":"2025-065C","EPOCH":"2026-03-08T12:38:49.447680","MEAN_MOTION":15.27581718,"ECCENTRICITY":0.00020118,"INCLINATION":43.0003,"RA_OF_ASC_NODE":113.5212,"ARG_OF_PERICENTER":291.8895,"MEAN_ANOMALY":68.1743,"EPHEMERIS_TYPE":0,"CLASSIFICATION_TYPE":"U","NORAD_CAT_ID":63401,"ELEMENT_SET_NO":999,"REV_AT_EPOCH":5266,"BSTAR":0.0015091346,"MEAN_MOTION_DOT":0.00041503,"MEAN_MOTION_DDOT":0}]
